[{"OBJECT_NAME":"TRANSPORTER-10 OBJECT AG","OBJECT_ID":"2024-043AG","EPOCH":"2026-03-09T22:12:45.387648","MEAN_MOTION":15.30759727,"ECCENTRICITY":0.00093005,"INCLINATION":97.5471,"RA_OF_ASC_NODE":205.7101,"ARG_OF_PERICENTER":226.5958,"MEAN_ANOMALY":133.4509,"EPHEMERIS_TYPE":0,"CLASSIFICATION_TYPE":"U","NORAD_CAT_ID":59128,"ELEMENT_SET_NO":999,"REV_AT_EPOCH":11192,"BSTAR":0.00032170115,"MEAN_MOTION_DOT":9.498e-5,"MEAN_MOTION_DDOT":0},{"OBJECT_NAME":"STARLINK-35075","OBJECT_ID":"2025-212AC","EPOCH":"2026-03-09T22:31:28.722432","MEAN_MOTION":15.30228075,"ECCENTRICITY":0.00010478,"INCLINATION":53.1601,"RA_OF_ASC_NODE":344.3728,"ARG_OF_PERICENTER":111.4182,"MEAN_ANOMALY":248.6931,"EPHEMERIS_TYPE":0,"CLASSIFICATION_TYPE":"U","NORAD_CAT_ID":65702,"ELEMENT_SET_NO":999,"REV_AT_EPOCH":2728,"BSTAR":0.0010826789,"MEAN_MOTION_DOT":0.00031872,"MEAN_MOTION_DDOT":0}]
